[{"OBJECT_NAME":"STARLINK-34721","OBJECT_ID":"2025-161AA","EPOCH":"2026-03-09T21:07:46.343136","MEAN_MOTION":15.30208248,"ECCENTRICITY":0.00011796,"INCLINATION":53.16,"RA_OF_ASC_NODE":292.9834,"ARG_OF_PERICENTER":167.4427,"MEAN_ANOMALY":192.6603,"EPHEMERIS_TYPE":0,"CLASSIFICATION_TYPE":"U","NORAD_CAT_ID":65039,"ELEMENT_SET_NO":999,"REV_AT_EPOCH":3426,"BSTAR":0.00085484728,"MEAN_MOTION_DOT":0.00025051,"MEAN_MOTION_DDOT":0},{"OBJECT_NAME":"SL-3 R\/B","OBJECT_ID":"1981-065B","EPOCH":"2026-03-09T21:58:16.284000","MEAN_MOTION":15.33300883,"ECCENTRICITY":0.00117648,"INCLINATION":97.6337,"RA_OF_ASC_NODE":111.1786,"ARG_OF_PERICENTER":10.529,"MEAN_ANOMALY":349.6196,"EPHEMERIS_TYPE":0,"CLASSIFICATION_TYPE":"U","NORAD_CAT_ID":12586,"ELEMENT_SET_NO":999,"REV_AT_EPOCH":43499,"BSTAR":0.00030084921,"MEAN_MOTION_DOT":9.62e-5,"MEAN_MOTION_DDOT":0}]
